{"type": "FeatureCollection", "features": [ {"type": "Feature", "properties": {"norad_id": 33153, "name": "INTELSAT 25 (IS-25)", "group": "intelsat", "lat": -0.8835455150383397, "lon": -75.02529660740157, "alt_km": 35765.965661968985, "timestamp": "2025-12-25T14:48:24.469088+00:00", "meta": {"OBJECT_NAME": "INTELSAT 25 (IS-25)", "OBJECT_ID": "2008-034A", "EPOCH": "2025-12-24T23:13:20.404128", "MEAN_MOTION": 1.00272025, "ECCENTRICITY": 0.00049045, "INCLINATION": 2.2573, "RA_OF_ASC_NODE": 82.5174, "ARG_OF_PERICENTER": 189.2444, "MEAN_ANOMALY": 138.8126, "EPHEMERIS_TYPE": 0, "CLASSIFICATION_TYPE": "U", "NORAD_CAT_ID": 33153, "ELEMENT_SET_NO": 999, "REV_AT_EPOCH": 6394, "BSTAR": 0, "MEAN_MOTION_DOT": -2.03e-06, "MEAN_MOTION_DDOT": 0}, "tle": {"line1": "1 33153U 08034A   25358.96759727 -.00000203  00000+0  00000+0 0  9999", "line2": "2 33153   2.2573  82.5174 0004904 189.2444 138.8126  1.00272025 63942"}}, "geometry": {"type": "Point", "coordinates": [-75.02529660740157, -0.8835455150383397]}}, {"type": "Feature", "properties": {"norad_id": 33376, "name": "GALAXY 19 (G-19)", "group": "intelsat", "lat": -0.03387848388255602, "lon": -140.56012802977256, "alt_km": 35780.45839815339, "timestamp": "2025-12-25T14:48:24.469099+00:00", "meta": {"OBJECT_NAME": "GALAXY 19 (G-19)", "OBJECT_ID": "2008-045A", "EPOCH": "2025-12-25T02:40:40.473984", "MEAN_MOTION": 1.00272049, "ECCENTRICITY": 0.00026988, "INCLINATION": 0.0416, "RA_OF_ASC_NODE": 264.7487, "ARG_OF_PERICENTER": 15.5414, "MEAN_ANOMALY": 116.7517, "EPHEMERIS_TYPE": 0, "CLASSIFICATION_TYPE": "U", "NORAD_CAT_ID": 33376, "ELEMENT_SET_NO": 999, "REV_AT_EPOCH": 6315, "BSTAR": 0, "MEAN_MOTION_DOT": -1.18e-06, "MEAN_MOTION_DDOT": 0}, "tle": {"line1": "1 33376U 08045A   25359.11157956 -.00000118  00000+0  00000+0 0  9997", "line2": "2 33376   0.0416 264.7487 0002698  15.5414 116.7517  1.00272049 63156"}}, "geometry": {"type": "Point", "coordinates": [-140.56012802977256, -0.03387848388255602]}}, {"type": "Feature", "properties": {"norad_id": 35493, "name": "FM-5", "group": "intelsat", "lat": -0.021429692213417804, "lon": -129.67183946487668, "alt_km": 35785.492263982356, "timestamp": "2025-12-25T14:48:24.469110+00:00", "meta": {"OBJECT_NAME": "FM-5", "OBJECT_ID": "2009-034A", "EPOCH": "2025-12-25T03:12:43.263648", "MEAN_MOTION": 1.00269775, "ECCENTRICITY": 8.51e-05, "INCLINATION": 0.0175, "RA_OF_ASC_NODE": 297.305, "ARG_OF_PERICENTER": 222.6055, "MEAN_ANOMALY": 256.0209, "EPHEMERIS_TYPE": 0, "CLASSIFICATION_TYPE": "U", "NORAD_CAT_ID": 35493, "ELEMENT_SET_NO": 999, "REV_AT_EPOCH": 4489, "BSTAR": 0, "MEAN_MOTION_DOT": -1.79e-06, "MEAN_MOTION_DDOT": 0}, "tle": {"line1": "1 35493U 09034A   25359.13383407 -.00000179  00000+0  00000+0 0  9999", "line2": "2 35493   0.0175 297.3050 0000851 222.6055 256.0209  1.00269775 44897"}}, "geometry": {"type": "Point", "coordinates": [-129.67183946487668, -0.021429692213417804]}}, {"type": "Feature", "properties": {"norad_id": 36097, "name": "INTELSAT 14 (IS-14)", "group": "intelsat", "lat": -0.03352045054431762, "lon": -88.56234327693038, "alt_km": 35776.166557282486, "timestamp": "2025-12-25T14:48:24.469121+00:00", "meta": {"OBJECT_NAME": "INTELSAT 14 (IS-14)", "OBJECT_ID": "2009-064A", "EPOCH": "2025-12-24T11:10:22.140192", "MEAN_MOTION": 1.00269035, "ECCENTRICITY": 0.0002637, "INCLINATION": 0.013, "RA_OF_ASC_NODE": 11.8022, "ARG_OF_PERICENTER": 274.0942, "MEAN_ANOMALY": 289.9229, "EPHEMERIS_TYPE": 0, "CLASSIFICATION_TYPE": "U", "NORAD_CAT_ID": 36097, "ELEMENT_SET_NO": 999, "REV_AT_EPOCH": 5885, "BSTAR": 0, "MEAN_MOTION_DOT": -2.53e-06, "MEAN_MOTION_DDOT": 0}, "tle": {"line1": "1 36097U 09064A   25358.46553403 -.00000253  00000+0  00000+0 0  9996", "line2": "2 36097   0.0130  11.8022 0002637 274.0942 289.9229  1.00269035 58854"}}, "geometry": {"type": "Point", "coordinates": [-88.56234327693038, -0.03352045054431762]}}, {"type": "Feature", "properties": {"norad_id": 36106, "name": "INTELSAT 15 (IS-15)", "group": "intelsat", "lat": 0.006118974564140142, "lon": 41.64891723900054, "alt_km": 35790.76736362162, "timestamp": "2025-12-25T14:48:24.469132+00:00", "meta": {"OBJECT_NAME": "INTELSAT 15 (IS-15)", "OBJECT_ID": "2009-067A", "EPOCH": "2025-12-24T23:46:32.224800", "MEAN_MOTION": 1.00270584, "ECCENTRICITY": 0.0002352, "INCLINATION": 0.0114, "RA_OF_ASC_NODE": 42.1591, "ARG_OF_PERICENTER": 243.8824, "MEAN_ANOMALY": 249.5075, "EPHEMERIS_TYPE": 0, "CLASSIFICATION_TYPE": "U", "NORAD_CAT_ID": 36106, "ELEMENT_SET_NO": 999, "REV_AT_EPOCH": 3948, "BSTAR": 0, "MEAN_MOTION_DOT": -1.64e-06, "MEAN_MOTION_DDOT": 0}, "tle": {"line1": "1 36106U 09067A   25358.99065075 -.00000164  00000+0  00000+0 0  9992", "line2": "2 36106   0.0114  42.1591 0002352 243.8824 249.5075  1.00270584 39482"}}, "geometry": {"type": "Point", "coordinates": [41.64891723900054, 0.006118974564140142]}}, {"type": "Feature", "properties": {"norad_id": 36131, "name": "DIRECTV 12", "group": "intelsat", "lat": 0.004939536074054205, "lon": -146.23707581511988, "alt_km": 35786.02014467494, "timestamp": "2025-12-25T14:48:24.469143+00:00", "meta": {"OBJECT_NAME": "DIRECTV 12", "OBJECT_ID": "2009-075A", "EPOCH": "2025-12-24T14:19:26.533632", "MEAN_MOTION": 1.00274235, "ECCENTRICITY": 5.749e-05, "INCLINATION": 0.0184, "RA_OF_ASC_NODE": 118.0209, "ARG_OF_PERICENTER": 200.6669, "MEAN_ANOMALY": 246.8321, "EPHEMERIS_TYPE": 0, "CLASSIFICATION_TYPE": "U", "NORAD_CAT_ID": 36131, "ELEMENT_SET_NO": 999, "REV_AT_EPOCH": 4480, "BSTAR": 0, "MEAN_MOTION_DOT": -8.3e-07, "MEAN_MOTION_DDOT": 0}, "tle": {"line1": "1 36131U 09075A   25358.59683488 -.00000083  00000+0  00000+0 0  9999", "line2": "2 36131   0.0184 118.0209 0000574 200.6669 246.8321  1.00274235 44801"}}, "geometry": {"type": "Point", "coordinates": [-146.23707581511988, 0.004939536074054205]}}, {"type": "Feature", "properties": {"norad_id": 36397, "name": "INTELSAT 16 (IS-16)", "group": "intelsat", "lat": -0.025008244114537732, "lon": -119.72542856234264, "alt_km": 35778.873250552286, "timestamp": "2025-12-25T14:48:24.469154+00:00", "meta": {"OBJECT_NAME": "INTELSAT 16 (IS-16)", "OBJECT_ID": "2010-006A", "EPOCH": "2025-12-25T04:32:09.998304", "MEAN_MOTION": 1.00272308, "ECCENTRICITY": 0.00019441, "INCLINATION": 0.0098, "RA_OF_ASC_NODE": 346.2974, "ARG_OF_PERICENTER": 284.2377, "MEAN_ANOMALY": 175.2747, "EPHEMERIS_TYPE": 0, "CLASSIFICATION_TYPE": "U", "NORAD_CAT_ID": 36397, "ELEMENT_SET_NO": 999, "REV_AT_EPOCH": 5791, "BSTAR": 0, "MEAN_MOTION_DOT": -2.23e-06, "MEAN_MOTION_DDOT": 0}, "tle": {"line1": "1 36397U 10006A   25359.18900461 -.00000223  00000+0  00000+0 0  9994", "line2": "2 36397   0.0098 346.2974 0001944 284.2377 175.2747  1.00272308 57911"}}, "geometry": {"type": "Point", "coordinates": [-119.72542856234264, -0.025008244114537732]}}, {"type": "Feature", "properties": {"norad_id": 37185, "name": "XM-5", "group": "intelsat", "lat": -0.059250049088855845, "lon": -158.7130628293416, "alt_km": 35781.43203723545, "timestamp": "2025-12-25T14:48:24.469164+00:00", "meta": {"OBJECT_NAME": "XM-5", "OBJECT_ID": "2010-053A", "EPOCH": "2025-12-25T06:10:38.820000", "MEAN_MOTION": 1.00271481, "ECCENTRICITY": 0.00018748, "INCLINATION": 0.0643, "RA_OF_ASC_NODE": 269.8074, "ARG_OF_PERICENTER": 238.5396, "MEAN_ANOMALY": 283.1353, "EPHEMERIS_TYPE": 0, "CLASSIFICATION_TYPE": "U", "NORAD_CAT_ID": 37185, "ELEMENT_SET_NO": 999, "REV_AT_EPOCH": 5573, "BSTAR": 0, "MEAN_MOTION_DOT": -2e-08, "MEAN_MOTION_DDOT": 0}, "tle": {"line1": "1 37185U 10053A   25359.25739375 -.00000002  00000+0  00000+0 0  9999", "line2": "2 37185   0.0643 269.8074 0001874 238.5396 283.1353  1.00271481 55730"}}, "geometry": {"type": "Point", "coordinates": [-158.7130628293416, -0.059250049088855845]}}, {"type": "Feature", "properties": {"norad_id": 37238, "name": "INTELSAT 17 (IS-17)", "group": "intelsat", "lat": 0.00018711944577219742, "lon": 22.49337108000937, "alt_km": 35787.93595841399, "timestamp": "2025-12-25T14:48:24.469175+00:00", "meta": {"OBJECT_NAME": "INTELSAT 17 (IS-17)", "OBJECT_ID": "2010-065B", "EPOCH": "2025-12-24T23:41:10.238784", "MEAN_MOTION": 1.00271402, "ECCENTRICITY": 0.00026786, "INCLINATION": 0.0089, "RA_OF_ASC_NODE": 124.505, "ARG_OF_PERICENTER": 159.0202, "MEAN_ANOMALY": 231.5148, "EPHEMERIS_TYPE": 0, "CLASSIFICATION_TYPE": "U", "NORAD_CAT_ID": 37238, "ELEMENT_SET_NO": 999, "REV_AT_EPOCH": 5150, "BSTAR": 0, "MEAN_MOTION_DOT": 2e-07, "MEAN_MOTION_DDOT": 0}, "tle": {"line1": "1 37238U 10065B   25358.98692406  .00000020  00000+0  00000+0 0  9992", "line2": "2 37238   0.0089 124.5050 0002678 159.0202 231.5148  1.00271402 51503"}}, "geometry": {"type": "Point", "coordinates": [22.49337108000937, 0.00018711944577219742]}}, {"type": "Feature", "properties": {"norad_id": 37392, "name": "INTELSAT 28 (IS-28)", "group": "intelsat", "lat": -0.4807190905649736, "lon": -75.22895687113211, "alt_km": 35770.70015091003, "timestamp": "2025-12-25T14:48:24.469185+00:00", "meta": {"OBJECT_NAME": "INTELSAT 28 (IS-28)", "OBJECT_ID": "2011-016A", "EPOCH": "2025-12-24T23:13:12.915840", "MEAN_MOTION": 1.00272029, "ECCENTRICITY": 0.00037347, "INCLINATION": 1.3543, "RA_OF_ASC_NODE": 84.9231, "ARG_OF_PERICENTER": 187.1936, "MEAN_ANOMALY": 138.2165, "EPHEMERIS_TYPE": 0, "CLASSIFICATION_TYPE": "U", "NORAD_CAT_ID": 37392, "ELEMENT_SET_NO": 999, "REV_AT_EPOCH": 5153, "BSTAR": 0, "MEAN_MOTION_DOT": -2.04e-06, "MEAN_MOTION_DDOT": 0}, "tle": {"line1": "1 37392U 11016A   25358.96751060 -.00000204  00000+0  00000+0 0  9995", "line2": "2 37392   1.3543  84.9231 0003734 187.1936 138.2165  1.00272029 51534"}}, "geometry": {"type": "Point", "coordinates": [-75.22895687113211, -0.4807190905649736]}}]}